CCSDS_OMM_VERS = 2.0
CREATION_DATE  = 
ORIGINATOR     = 

OBJECT_NAME    = STARLINK-36352
OBJECT_ID      = 2026-016G
CENTER_NAME    = EARTH
REF_FRAME      = TEME
TIME_SYSTEM    = UTC
MEAN_ELEMENT_THEORY = SGP/SGP4

EPOCH          = 2026-02-17T17:54:24.810336
MEAN_MOTION    = 15.80855341
ECCENTRICITY   = .000151
INCLINATION    = 97.2831
RA_OF_ASC_NODE = 108.2431
ARG_OF_PERICENTER = 88.1991
MEAN_ANOMALY   = 271.9450

EPHEMERIS_TYPE = 0
CLASSIFICATION_TYPE = U
NORAD_CAT_ID   = 67567
ELEMENT_SET_NO = 999
REV_AT_EPOCH   = 366
BSTAR          = .84372E-3
MEAN_MOTION_DOT = .164857E-2
MEAN_MOTION_DDOT = 0

CCSDS_OMM_VERS = 2.0
CREATION_DATE  = 
ORIGINATOR     = 

OBJECT_NAME    = STARLINK-36435
OBJECT_ID      = 2026-016H
CENTER_NAME    = EARTH
REF_FRAME      = TEME
TIME_SYSTEM    = UTC
MEAN_ELEMENT_THEORY = SGP/SGP4

EPOCH          = 2026-02-17T17:51:10.430208
MEAN_MOTION    = 15.80834252
ECCENTRICITY   = .000049
INCLINATION    = 97.2836
RA_OF_ASC_NODE = 108.2463
ARG_OF_PERICENTER = 132.6677
MEAN_ANOMALY   = 227.4633

EPHEMERIS_TYPE = 0
CLASSIFICATION_TYPE = U
NORAD_CAT_ID   = 67568
ELEMENT_SET_NO = 999
REV_AT_EPOCH   = 366
BSTAR          = .7088E-3
MEAN_MOTION_DOT = .137906E-2
MEAN_MOTION_DDOT = 0

CCSDS_OMM_VERS = 2.0
CREATION_DATE  = 
ORIGINATOR     = 

OBJECT_NAME    = STARLINK-36575
OBJECT_ID      = 2026-016J
CENTER_NAME    = EARTH
REF_FRAME      = TEME
TIME_SYSTEM    = UTC
MEAN_ELEMENT_THEORY = SGP/SGP4

EPOCH          = 2026-02-17T19:20:35.278368
MEAN_MOTION    = 15.80826983
ECCENTRICITY   = .0001653
INCLINATION    = 97.2825
RA_OF_ASC_NODE = 108.3184
ARG_OF_PERICENTER = 116.9477
MEAN_ANOMALY   = 243.1960

EPHEMERIS_TYPE = 0
CLASSIFICATION_TYPE = U
NORAD_CAT_ID   = 67569
ELEMENT_SET_NO = 999
REV_AT_EPOCH   = 367
BSTAR          = .48474E-3
MEAN_MOTION_DOT = .93762E-3
MEAN_MOTION_DDOT = 0

CCSDS_OMM_VERS = 2.0
CREATION_DATE  = 
ORIGINATOR     = 

OBJECT_NAME    = STARLINK-36562
OBJECT_ID      = 2026-016K
CENTER_NAME    = EARTH
REF_FRAME      = TEME
TIME_SYSTEM    = UTC
MEAN_ELEMENT_THEORY = SGP/SGP4

EPOCH          = 2026-02-17T17:48:07.213824
MEAN_MOTION    = 15.80831546
ECCENTRICITY   = .0001563
INCLINATION    = 97.2823
RA_OF_ASC_NODE = 108.2522
ARG_OF_PERICENTER = 95.3316
MEAN_ANOMALY   = 264.8131

EPHEMERIS_TYPE = 0
CLASSIFICATION_TYPE = U
NORAD_CAT_ID   = 67570
ELEMENT_SET_NO = 999
REV_AT_EPOCH   = 366
BSTAR          = .61294E-3
MEAN_MOTION_DOT = .118964E-2
MEAN_MOTION_DDOT = 0

CCSDS_OMM_VERS = 2.0
CREATION_DATE  = 
ORIGINATOR     = 

OBJECT_NAME    = STARLINK-36578
OBJECT_ID      = 2026-016L
CENTER_NAME    = EARTH
REF_FRAME      = TEME
TIME_SYSTEM    = UTC
MEAN_ELEMENT_THEORY = SGP/SGP4

EPOCH          = 2026-02-17T18:29:35.817216
MEAN_MOTION    = 15.75224314
ECCENTRICITY   = .0001173
INCLINATION    = 97.2840
RA_OF_ASC_NODE = 108.2112
ARG_OF_PERICENTER = 79.4708
MEAN_ANOMALY   = 280.6690

EPHEMERIS_TYPE = 0
CLASSIFICATION_TYPE = U
NORAD_CAT_ID   = 67571
ELEMENT_SET_NO = 999
REV_AT_EPOCH   = 366
BSTAR          = .89136E-3
MEAN_MOTION_DOT = .135145E-2
MEAN_MOTION_DDOT = 0

CCSDS_OMM_VERS = 2.0
CREATION_DATE  = 
ORIGINATOR     = 

OBJECT_NAME    = STARLINK-36350
OBJECT_ID      = 2026-016M
CENTER_NAME    = EARTH
REF_FRAME      = TEME
TIME_SYSTEM    = UTC
MEAN_ELEMENT_THEORY = SGP/SGP4

EPOCH          = 2026-02-17T18:18:25.037856
MEAN_MOTION    = 15.75226100
ECCENTRICITY   = .00016
INCLINATION    = 97.2840
RA_OF_ASC_NODE = 108.2204
ARG_OF_PERICENTER = 69.6596
MEAN_ANOMALY   = 290.4841

EPHEMERIS_TYPE = 0
CLASSIFICATION_TYPE = U
NORAD_CAT_ID   = 67572
ELEMENT_SET_NO = 999
REV_AT_EPOCH   = 366
BSTAR          = .10466E-2
MEAN_MOTION_DOT = .159164E-2
MEAN_MOTION_DDOT = 0

CCSDS_OMM_VERS = 2.0
CREATION_DATE  = 
ORIGINATOR     = 

OBJECT_NAME    = STARLINK-36588
OBJECT_ID      = 2026-016N
CENTER_NAME    = EARTH
REF_FRAME      = TEME
TIME_SYSTEM    = UTC
MEAN_ELEMENT_THEORY = SGP/SGP4

EPOCH          = 2026-02-17T18:21:27.995040
MEAN_MOTION    = 15.75223372
ECCENTRICITY   = .0001442
INCLINATION    = 97.2837
RA_OF_ASC_NODE = 108.2187
ARG_OF_PERICENTER = 88.3230
MEAN_ANOMALY   = 271.8201

EPHEMERIS_TYPE = 0
CLASSIFICATION_TYPE = U
NORAD_CAT_ID   = 67573
ELEMENT_SET_NO = 999
REV_AT_EPOCH   = 366
BSTAR          = .9763E-3
MEAN_MOTION_DOT = .14826E-2
MEAN_MOTION_DDOT = 0

CCSDS_OMM_VERS = 2.0
CREATION_DATE  = 
ORIGINATOR     = 

OBJECT_NAME    = STARLINK-36594
OBJECT_ID      = 2026-016P
CENTER_NAME    = EARTH
REF_FRAME      = TEME
TIME_SYSTEM    = UTC
MEAN_ELEMENT_THEORY = SGP/SGP4

EPOCH          = 2026-02-17T19:12:29.376000
MEAN_MOTION    = 15.80847589
ECCENTRICITY   = .0001404
INCLINATION    = 97.2831
RA_OF_ASC_NODE = 108.3239
ARG_OF_PERICENTER = 85.8788
MEAN_ANOMALY   = 274.2641

EPHEMERIS_TYPE = 0
CLASSIFICATION_TYPE = U
NORAD_CAT_ID   = 67574
ELEMENT_SET_NO = 999
REV_AT_EPOCH   = 367
BSTAR          = .73248E-3
MEAN_MOTION_DOT = .142685E-2
MEAN_MOTION_DDOT = 0

CCSDS_OMM_VERS = 2.0
CREATION_DATE  = 
ORIGINATOR     = 

OBJECT_NAME    = STARLINK-36400
OBJECT_ID      = 2026-016Q
CENTER_NAME    = EARTH
REF_FRAME      = TEME
TIME_SYSTEM    = UTC
MEAN_ELEMENT_THEORY = SGP/SGP4

EPOCH          = 2026-02-17T20:00:01.999008
MEAN_MOTION    = 15.75187568
ECCENTRICITY   = .000149
INCLINATION    = 97.2845
RA_OF_ASC_NODE = 108.3342
ARG_OF_PERICENTER = 68.5142
MEAN_ANOMALY   = 59.4820

EPHEMERIS_TYPE = 0
CLASSIFICATION_TYPE = U
NORAD_CAT_ID   = 67575
ELEMENT_SET_NO = 999
REV_AT_EPOCH   = 479
BSTAR          = .25865E-3
MEAN_MOTION_DOT = .3862E-3
MEAN_MOTION_DDOT = 0

CCSDS_OMM_VERS = 2.0
CREATION_DATE  = 
ORIGINATOR     = 

OBJECT_NAME    = STARLINK-36591
OBJECT_ID      = 2026-016R
CENTER_NAME    = EARTH
REF_FRAME      = TEME
TIME_SYSTEM    = UTC
MEAN_ELEMENT_THEORY = SGP/SGP4

EPOCH          = 2026-02-17T20:00:01.999008
MEAN_MOTION    = 15.77305253
ECCENTRICITY   = .0001967
INCLINATION    = 97.2838
RA_OF_ASC_NODE = 108.3627
ARG_OF_PERICENTER = 81.0881
MEAN_ANOMALY   = 113.0539

EPHEMERIS_TYPE = 0
CLASSIFICATION_TYPE = U
NORAD_CAT_ID   = 67576
ELEMENT_SET_NO = 999
REV_AT_EPOCH   = 485
BSTAR          = -.13303E-1
MEAN_MOTION_DOT = -.1899189E-1
MEAN_MOTION_DDOT = 0

CCSDS_OMM_VERS = 2.0
CREATION_DATE  = 
ORIGINATOR     = 

OBJECT_NAME    = STARLINK-36590
OBJECT_ID      = 2026-016S
CENTER_NAME    = EARTH
REF_FRAME      = TEME
TIME_SYSTEM    = UTC
MEAN_ELEMENT_THEORY = SGP/SGP4

EPOCH          = 2026-02-17T18:01:39.036000
MEAN_MOTION    = 15.75202313
ECCENTRICITY   = .0001542
INCLINATION    = 97.2831
RA_OF_ASC_NODE = 108.2364
ARG_OF_PERICENTER = 96.6841
MEAN_ANOMALY   = 263.4599

EPHEMERIS_TYPE = 0
CLASSIFICATION_TYPE = U
NORAD_CAT_ID   = 67577
ELEMENT_SET_NO = 999
REV_AT_EPOCH   = 366
BSTAR          = .86368E-3
MEAN_MOTION_DOT = .130755E-2
MEAN_MOTION_DDOT = 0

CCSDS_OMM_VERS = 2.0
CREATION_DATE  = 
ORIGINATOR     = 

OBJECT_NAME    = STARLINK-36613
OBJECT_ID      = 2026-016T
CENTER_NAME    = EARTH
REF_FRAME      = TEME
TIME_SYSTEM    = UTC
MEAN_ELEMENT_THEORY = SGP/SGP4

EPOCH          = 2026-02-17T19:06:32.139648
MEAN_MOTION    = 15.80881111
ECCENTRICITY   = .0001547
INCLINATION    = 97.2834
RA_OF_ASC_NODE = 108.3286
ARG_OF_PERICENTER = 110.2165
MEAN_ANOMALY   = 249.9270

EPHEMERIS_TYPE = 0
CLASSIFICATION_TYPE = U
NORAD_CAT_ID   = 67578
ELEMENT_SET_NO = 999
REV_AT_EPOCH   = 367
BSTAR          = .10778E-2
MEAN_MOTION_DOT = .212039E-2
MEAN_MOTION_DDOT = 0

CCSDS_OMM_VERS = 2.0
CREATION_DATE  = 
ORIGINATOR     = 

OBJECT_NAME    = STARLINK-36571
OBJECT_ID      = 2026-016U
CENTER_NAME    = EARTH
REF_FRAME      = TEME
TIME_SYSTEM    = UTC
MEAN_ELEMENT_THEORY = SGP/SGP4

EPOCH          = 2026-02-17T13:32:47.593536
MEAN_MOTION    = 15.75233020
ECCENTRICITY   = .00009889
INCLINATION    = 97.2833
RA_OF_ASC_NODE = 108.0317
ARG_OF_PERICENTER = 86.5427
MEAN_ANOMALY   = 273.5952

EPHEMERIS_TYPE = 0
CLASSIFICATION_TYPE = U
NORAD_CAT_ID   = 67579
ELEMENT_SET_NO = 999
REV_AT_EPOCH   = 363
BSTAR          = .10269276E-2
MEAN_MOTION_DOT = .156164E-2
MEAN_MOTION_DDOT = 0

CCSDS_OMM_VERS = 2.0
CREATION_DATE  = 
ORIGINATOR     = 

OBJECT_NAME    = STARLINK-36612
OBJECT_ID      = 2026-016V
CENTER_NAME    = EARTH
REF_FRAME      = TEME
TIME_SYSTEM    = UTC
MEAN_ELEMENT_THEORY = SGP/SGP4

EPOCH          = 2026-02-17T14:29:20.743584
MEAN_MOTION    = 15.80883974
ECCENTRICITY   = .0001378
INCLINATION    = 97.2840
RA_OF_ASC_NODE = 108.1314
ARG_OF_PERICENTER = 95.6807
MEAN_ANOMALY   = 264.4619

EPHEMERIS_TYPE = 0
CLASSIFICATION_TYPE = U
NORAD_CAT_ID   = 67580
ELEMENT_SET_NO = 999
REV_AT_EPOCH   = 364
BSTAR          = .10004827E-2
MEAN_MOTION_DOT = .196484E-2
MEAN_MOTION_DDOT = 0

CCSDS_OMM_VERS = 2.0
CREATION_DATE  = 
ORIGINATOR     = 

OBJECT_NAME    = STARLINK-36632
OBJECT_ID      = 2026-016W
CENTER_NAME    = EARTH
REF_FRAME      = TEME
TIME_SYSTEM    = UTC
MEAN_ELEMENT_THEORY = SGP/SGP4

EPOCH          = 2026-02-17T14:47:00.233088
MEAN_MOTION    = 15.75229045
ECCENTRICITY   = .00022369
INCLINATION    = 97.2835
RA_OF_ASC_NODE = 108.1149
ARG_OF_PERICENTER = 87.5276
MEAN_ANOMALY   = 272.6245

EPHEMERIS_TYPE = 0
CLASSIFICATION_TYPE = U
NORAD_CAT_ID   = 67581
ELEMENT_SET_NO = 999
REV_AT_EPOCH   = 364
BSTAR          = .11646207E-2
MEAN_MOTION_DOT = .177547E-2
MEAN_MOTION_DDOT = 0

